STARLINK-3896           
1 52456U 22049F   22149.58334491 -.00718834  00000+0 -82709-2 0  9994
2 52456  53.2172 151.8558 0001452  50.5131 162.9627 15.63638967  1305
STARLINK-3899           
1 52457U 22049G   22149.58334491 -.00718972  00000+0 -82718-2 0  9998
2 52457  53.2172 151.8609 0001190  82.4694 131.7326 15.63643488  1304
STARLINK-3898           
1 52458U 22049H   22149.58334491 -.00719004  00000+0 -82699-2 0  9994
2 52458  53.2172 151.8652 0001528  44.9780 169.9502 15.63647906  1305
STARLINK-3856           
1 52459U 22049J   22149.58334491 -.00071915  00000+0 -51345-3 0  9992
2 52459  53.2149 151.6116 0002396  23.4491 300.8218 15.73146650  1309
STARLINK-3865           
1 52460U 22049K   22149.58334491 -.00089715  00000+0 -64265-3 0  9996
2 52460  53.2143 151.6080 0002241  22.2138 303.3145 15.73159712  1309
STARLINK-3900           
1 52461U 22049L   22149.58334491 -.00071147  00000+0 -50639-3 0  9997
2 52461  53.2149 151.6125 0002353  12.5323 311.3161 15.73214614  1308
STARLINK-3903           
1 52462U 22049M   22149.58334491 -.00308002  00000+0 -22659-2 0  9991
2 52462  53.2147 151.6037 0002314  13.5020 314.3715 15.73250967  1300
STARLINK-3885           
1 52463U 22049N   22149.58334491 -.00069278  00000+0 -49324-3 0  9990
2 52463  53.2149 151.6106 0002079  18.6638 306.1016 15.73198218  1302
STARLINK-3904           
1 52464U 22049P   22149.58334491 -.00109625  00000+0 -78767-3 0  9995
2 52464  53.2149 151.6062 0002230  20.9527 305.8066 15.73172868  1300
STARLINK-3863           
1 52465U 22049Q   22149.58334491 -.00098259  00000+0 -70438-3 0  9993
2 52465  53.2145 151.6077 0002128  22.9280 303.2044 15.73180493  1308
STARLINK-3840           
1 52466U 22049R   22149.58334491 -.00107727  00000+0 -77389-3 0  9997
2 52466  53.2143 151.6015 0002418  15.4603 313.2395 15.73168855  1305
STARLINK-3873           
1 52467U 22049S   22149.58334491 -.00103853  00000+0 -74488-3 0  9991
2 52467  53.2147 151.6035 0002282  19.7639 308.2649 15.73190567  1308
STARLINK-3864           
1 52468U 22049T   22149.58334491 -.00116890  00000+0 -84050-3 0  9993
2 52468  53.2142 151.5972 0002143  27.0500 303.5165 15.73184121  1308
STARLINK-3828           
1 52469U 22049U   22149.58334491 -.00074957  00000+0 -53466-3 0  9998
2 52469  53.2141 151.5999 0002323  17.7583 311.4449 15.73185721  1304
STARLINK-3859           
1 52470U 22049V   22149.58334491 -.00044874  00000+0 -31728-3 0  9992
2 52470  53.2141 151.5950 0002273  20.8707 310.8196 15.73176598  1304
STARLINK-3862           
1 52471U 22049W   22149.58334491 -.00079605  00000+0 -56876-3 0  9994
2 52471  53.2147 151.5998 0002261  19.0445 310.8647 15.73171358  1309
STARLINK-3881           
1 52472U 22049X   22149.58334491 -.00074742  00000+0 -53377-3 0  9995
2 52472  53.2137 151.5910 0002295  17.7868 315.3132 15.73156352  1300
STARLINK-3879           
1 52473U 22049Y   22149.58334491 -.00070340  00000+0 -50090-3 0  9995
2 52473  53.2145 151.5971 0002229  15.3072 315.7491 15.73198984  1304
STARLINK-3855           
1 52474U 22049Z   22149.58334491 -.00140569  00000+0 -10143-2 0  9991
2 52474  53.2136 151.5882 0002383  20.8735 313.5030 15.73187569  1306
STARLINK-3882           
1 52475U 22049AA  22149.58334491 -.00068834  00000+0 -48997-3 0  9995
2 52475  53.2140 151.5933 0002355  14.0828 318.2469 15.73199616  1300
STARLINK-3835           
1 52476U 22049AB  22149.58334491 -.00096923  00000+0 -69447-3 0  9999
2 52476  53.2139 151.5864 0002341  19.3494 316.2042 15.73184837  1308
STARLINK-3860           
1 52477U 22049AC  22149.58334491 -.00075436  00000+0 -53840-3 0  9996
2 52477  53.2141 151.5912 0002438  15.3887 318.2815 15.73173517  1308
STARLINK-3825           
1 52478U 22049AD  22149.58334491 -.00044182  00000+0 -31229-3 0  9998
2 52478  53.2136 151.5849 0002363  18.8332 317.2871 15.73176564  1308
STARLINK-3878           
1 52479U 22049AE  22149.58334491 -.00060393  00000+0 -42911-3 0  9991
2 52479  53.2139 151.5821 0002260  18.1393 319.8497 15.73189174  1301
STARLINK-3839           
1 52480U 22049AF  22149.58334491 -.00133837  00000+0 -96460-3 0  9995
2 52480  53.2135 151.5821 0002351  18.5710 318.9377 15.73191196  1301
STARLINK-3842           
1 52481U 22049AG  22149.58334491 -.00101620  00000+0 -72860-3 0  9999
2 52481  53.2140 151.5883 0002357  19.6532 315.3011 15.73189357  1308
STARLINK-3813           
1 52482U 22049AH  22149.58334491 -.00076761  00000+0 -54844-3 0  9999
2 52482  53.2135 151.5767 0002192  21.5107 318.4867 15.73156881  1300
STARLINK-3875           
1 52483U 22049AJ  22149.58334491 -.00093027  00000+0 -66644-3 0  9995
2 52483  53.2135 151.5830 0002249  22.5288 314.3435 15.73172263  1304
STARLINK-3887           
1 52484U 22049AK  22149.58334491  .00832835  00000+0  54836-2 0  9991
2 52484  53.2166 151.5780 0002125  26.3435 314.2423 15.72712971  1303
STARLINK-3913           
1 52485U 22049AL  22149.58334491 -.00106387  00000+0 -76329-3 0  9992
2 52485  53.2137 151.5786 0002380  20.7124 318.5300 15.73193157  1305
STARLINK-3918           
1 52486U 22049AM  22149.58334491 -.00085891  00000+0 -61441-3 0  9998
2 52486  53.2148 151.5721 0002256  23.3571 318.4865 15.73173943  1300
STARLINK-3902           
1 52487U 22049AN  22149.58334491 -.00089599  00000+0 -64142-3 0  9999
2 52487  53.2135 151.5793 0002369  22.3780 316.3618 15.73172986  1301
STARLINK-3892           
1 52488U 22049AP  22149.58334491  .00030960  00000+0  22439-3 0  9999
2 52488  53.2140 151.5697 0002220  21.5154 321.6212 15.73178163  1305
STARLINK-3923           
1 52489U 22049AQ  22149.58334491  .00006194  00000+0  48674-4 0  9992
2 52489  53.2138 151.5750 0002121  17.0425 324.2257 15.73123501  1308
STARLINK-3914           
1 52490U 22049AR  22149.58334491 -.00085660  00000+0 -61272-3 0  9999
2 52490  53.2134 151.5672 0002137  17.6231 326.8239 15.73174934  1301
STARLINK-3908           
1 52491U 22049AS  22149.58334491 -.00064000  00000+0 -45506-3 0  9997
2 52491  53.2137 151.5726 0002435  21.9929 320.3967 15.73195507  1304
STARLINK-3916           
1 52492U 22049AT  22149.58334491 -.00099890  00000+0 -71630-3 0  9990
2 52492  53.2148 151.5643 0002240  28.8324 316.8326 15.73179422  1301
STARLINK-3883           
1 52493U 22049AU  22149.58334491 -.00062325  00000+0 -44309-3 0  9997
2 52493  53.2136 151.5696 0002167  17.9634 325.6955 15.73189028  1307
STARLINK-3857           
1 52494U 22049AV  22149.58334491 -.00077016  00000+0 -54948-3 0  9991
2 52494  53.2145 151.5593 0002275  18.6686 329.3522 15.73190938  1302
STARLINK-3905           
1 52495U 22049AW  22149.58334491 -.00069744  00000+0 -49733-3 0  9997
2 52495  53.2149 151.5661 0002376  22.7732 322.2276 15.73163236  1302
STARLINK-3871           
1 52496U 22049AX  22149.58334491 -.00694759  00000+0 -40526-2 0  9998
2 52496  53.2171 149.7918 0001130  65.3941  63.9949 15.79525405  1306
STARLINK-3884           
1 52497U 22049AY  22149.58334491 -.00120145  00000+0 -86261-3 0  9999
2 52497  53.2145 151.5637 0002148  20.2564 325.9169 15.73231233  1300
STARLINK-3925           
1 52498U 22049AZ  22149.58334491 -.00096205  00000+0 -68956-3 0  9990
2 52498  53.2148 151.5577 0002289  25.4243 323.3690 15.73174007  3829
STARLINK-3894           
1 52499U 22049BA  22149.58567927 -.00021023  00000+0 -14573-3 0  9995
2 52499  53.2146 151.5484 0001905  36.6220 323.4930 15.73200094  3664
STARLINK-3866           
1 52500U 22049BB  22149.58334491 -.00091871  00000+0 -65811-3 0  9995
2 52500  53.2143 151.5569 0002415  22.0541 327.3993 15.73168059  1305
STARLINK-3907           
1 52501U 22049BC  22149.58334491 -.00020421  00000+0 -14159-3 0  9998
2 52501  53.2151 151.5615 0002316  14.7115 332.6541 15.73169383  1301
STARLINK-3912           
1 52502U 22049BD  22149.58334491 -.00109201  00000+0 -78395-3 0  9995
2 52502  53.2137 151.5536 0001951  28.5618 322.1760 15.73192332  1300
STARLINK-3861           
1 52503U 22049BE  22149.58334491 -.00101554  00000+0 -72737-3 0  9993
2 52503  53.2137 151.5550 0002228  22.9983 326.9831 15.73213931  1308
FALCON 9 DEB            
1 52504U 22049BF  22149.57443600  .00246865  35647-4  54891-3 0  9990
2 52504  53.2023 149.2232 0012147 351.9827   8.1007 15.97327879  3698
FALCON 9 DEB            
1 52505U 22049BG  22149.37790391  .00282293  43775-4  59039-3 0  9996
2 52505  53.2012 150.1273 0012422   2.2661 357.8423 15.98386119  3667
FALCON 9 DEB            
1 52506U 22049BH  22149.42097583  .00367021  68805-4  67516-3 0  9999
2 52506  53.2003 149.6818 0007928   3.9374 356.1719 16.00681867  3673
FALCON 9 DEB            
1 52507U 22049BJ  22149.41413744  .00408809  84225-4  70925-3 0  9992
2 52507  53.2049 149.6448 0009348  12.8321 347.2947 16.01648682  3675
TIANZHOU-4              
1 52509U 22050A   22149.51087609  .00023199  00000+0  27848-3 0  9999
2 52509  41.4721 332.4620 0001280 111.9287 294.0032 15.60342264 61855
2022-050B               
1 52510U 22050B   22149.77817333  .04412805  79062-5  11222-2 0  9992
2 52510  41.4627 323.5256 0027137 284.1397  88.7446 16.26670303  3193
STARLINK-3951           
1 52533U 22051A   22149.58334491 -.00038836  00000+0 -27444-3 0  9996
2 52533  53.2173 215.6251 0002501  21.1429 219.5244 15.73120834  3004
STARLINK-3952           
1 52534U 22051B   22149.54110092 -.00015528  00000+0 -10641-3 0  9996
2 52534  53.2179 215.8345 0002648  22.1888 337.9246 15.73195518  3007
STARLINK-3958           
1 52535U 22051C   22149.58334491 -.00062192  00000+0 -44271-3 0  9997
2 52535  53.2174 215.6273 0002983  15.2057 224.8782 15.73154569  3004
STARLINK-3964           
1 52536U 22051D   22149.58334491 -.00066112  00000+0 -47078-3 0  9992
2 52536  53.2175 215.6250 0002671  16.5038 224.7513 15.73172495  3007
STARLINK-3897           
1 52537U 22051E   22149.54069208  .00041913  00000+0  30141-3 0  9993
2 52537  53.2186 215.8320 0002529  20.9835 339.1289 15.73209809  2938
